[
    {
        "Altitude(m)": 553605.3819117111,
        "Argument of Periapsis(deg)": 0.013245982221427002,
        "Eccentricity": 0.0,
        "Inclination(deg)": 53.0,
        "Latitude(deg)": 7.057711022726762,
        "Longitude(deg)": -156.9004853060549,
        "Mean Anomaly(deg)": 171.09228573515514,
        "RAAN(deg)": 129.98028673705602,
        "Satellite Name": "Starlink Shell 1 581",
        "Satellite Number": 581,
        "Semi-Major Axis(m)": 6931778.249405717,
        "Time(s)": 380
    },
    {
        "Altitude(m)": 553632.7667721248,
        "Argument of Periapsis(deg)": 0.013594560700938237,
        "Eccentricity": 0.0,
        "Inclination(deg)": 53.0,
        "Latitude(deg)": 6.555753589074949,
        "Longitude(deg)": -156.55970691430676,
        "Mean Anomaly(deg)": 171.71911693871195,
        "RAAN(deg)": 129.97976796697856,
        "Satellite Name": "Starlink Shell 1 581",
        "Satellite Number": 581,
        "Semi-Major Axis(m)": 6931778.249405717,
        "Time(s)": 390
    },
    {
        "Altitude(m)": 553662.9373364181,
        "Argument of Periapsis(deg)": 0.013943139180449475,
        "Eccentricity": 0.0,
        "Inclination(deg)": 53.0,
        "Latitude(deg)": 6.053502914523198,
        "Longitude(deg)": -156.21969698382125,
        "Mean Anomaly(deg)": 172.34594814226858,
        "RAAN(deg)": 129.97924919690107,
        "Satellite Name": "Starlink Shell 1 581",
        "Satellite Number": 581,
        "Semi-Major Axis(m)": 6931778.249405717,
        "Time(s)": 400
    },
    {
        "Altitude(m)": 553695.9024573165,
        "Argument of Periapsis(deg)": 0.014291717659960712,
        "Eccentricity": 0.0,
        "Inclination(deg)": 53.0,
        "Latitude(deg)": 5.550982866814381,
        "Longitude(deg)": -155.88039542838027,
        "Mean Anomaly(deg)": 172.97277934582536,
        "RAAN(deg)": 129.97873042682363,
        "Satellite Name": "Starlink Shell 1 581",
        "Satellite Number": 581,
        "Semi-Major Axis(m)": 6931778.249405717,
        "Time(s)": 410
    },
    {
        "Altitude(m)": 553731.6696666757,
        "Argument of Periapsis(deg)": 0.014640296139471948,
        "Eccentricity": 0.0,
        "Inclination(deg)": 53.0,
        "Latitude(deg)": 5.0482171660680955,
        "Longitude(deg)": -155.54174297753335,
        "Mean Anomaly(deg)": 173.59961054938196,
        "RAAN(deg)": 129.97821165674614,
        "Satellite Name": "Starlink Shell 1 581",
        "Satellite Number": 581,
        "Semi-Major Axis(m)": 6931778.249405717,
        "Time(s)": 420
    },
    {
        "Altitude(m)": 553770.2451689532,
        "Argument of Periapsis(deg)": 0.014988874618983185,
        "Eccentricity": 0.0,
        "Inclination(deg)": 53.0,
        "Latitude(deg)": 4.5452293972345945,
        "Longitude(deg)": -155.2036806465464,
        "Mean Anomaly(deg)": 174.22644175293877,
        "RAAN(deg)": 129.97769288666868,
        "Satellite Name": "Starlink Shell 1 581",
        "Satellite Number": 581,
        "Semi-Major Axis(m)": 6931778.249405717,
        "Time(s)": 430
    },
    {
        "Altitude(m)": 553811.6338353456,
        "Argument of Periapsis(deg)": 0.015337453098494424,
        "Eccentricity": 0.0,
        "Inclination(deg)": 53.0,
        "Latitude(deg)": 4.042043022422073,
        "Longitude(deg)": -154.86614920643072,
        "Mean Anomaly(deg)": 174.8532729564955,
        "RAAN(deg)": 129.9771741165912,
        "Satellite Name": "Starlink Shell 1 581",
        "Satellite Number": 581,
        "Semi-Major Axis(m)": 6931778.249405717,
        "Time(s)": 440
    },
    {
        "Altitude(m)": 553855.8391985729,
        "Argument of Periapsis(deg)": 0.01568603157800566,
        "Eccentricity": 0.0,
        "Inclination(deg)": 53.0,
        "Latitude(deg)": 3.538681393109224,
        "Longitude(deg)": -154.5290901669183,
        "Mean Anomaly(deg)": 175.48010416005215,
        "RAAN(deg)": 129.97665534651372,
        "Satellite Name": "Starlink Shell 1 581",
        "Satellite Number": 581,
        "Semi-Major Axis(m)": 6931778.249405717,
        "Time(s)": 450
    },
    {
        "Altitude(m)": 553902.8634483636,
        "Argument of Periapsis(deg)": 0.0160346100575169,
        "Eccentricity": 0.0,
        "Inclination(deg)": 53.0,
        "Latitude(deg)": 3.035167762251071,
        "Longitude(deg)": -154.19244524663353,
        "Mean Anomaly(deg)": 176.1069353636089,
        "RAAN(deg)": 129.97613657643623,
        "Satellite Name": "Starlink Shell 1 581",
        "Satellite Number": 581,
        "Semi-Major Axis(m)": 6931778.249405717,
        "Time(s)": 460
    },
    {
        "Altitude(m)": 553952.7074275835,
        "Argument of Periapsis(deg)": 0.016383188537028134,
        "Eccentricity": 0.0,
        "Inclination(deg)": 53.0,
        "Latitude(deg)": 2.531525296291824,
        "Longitude(deg)": -153.8561558433273,
        "Mean Anomaly(deg)": 176.7337665671656,
        "RAAN(deg)": 129.9756178063588,
        "Satellite Name": "Starlink Shell 1 581",
        "Satellite Number": 581,
        "Semi-Major Axis(m)": 6931778.249405717,
        "Time(s)": 470
    },
    {
        "Altitude(m)": 554005.3706290366,
        "Argument of Periapsis(deg)": 0.01673176701653937,
        "Eccentricity": 0.0,
        "Inclination(deg)": 53.0,
        "Latitude(deg)": 2.0277770870977756,
        "Longitude(deg)": -153.5201640170411,
        "Mean Anomaly(deg)": 177.36059777072236,
        "RAAN(deg)": 129.9750990362813,
        "Satellite Name": "Starlink Shell 1 581",
        "Satellite Number": 581,
        "Semi-Major Axis(m)": 6931778.249405717,
        "Time(s)": 480
    },
    {
        "Altitude(m)": 554060.8511929656,
        "Argument of Periapsis(deg)": 0.017080345496050607,
        "Eccentricity": 0.0,
        "Inclination(deg)": 53.0,
        "Latitude(deg)": 1.5239461638183989,
        "Longitude(deg)": -153.18441196044776,
        "Mean Anomaly(deg)": 177.98742897427903,
        "RAAN(deg)": 129.97458026620384,
        "Satellite Name": "Starlink Shell 1 581",
        "Satellite Number": 581,
        "Semi-Major Axis(m)": 6931778.249405717,
        "Time(s)": 490
    },
    {
        "Altitude(m)": 554119.1459051828,
        "Argument of Periapsis(deg)": 0.017428923975561842,
        "Eccentricity": 0.0,
        "Inclination(deg)": 53.0,
        "Latitude(deg)": 1.020055504687232,
        "Longitude(deg)": -152.84884146923469,
        "Mean Anomaly(deg)": 178.61426017783577,
        "RAAN(deg)": 129.97406149612635,
        "Satellite Name": "Starlink Shell 1 581",
        "Satellite Number": 581,
        "Semi-Major Axis(m)": 6931778.249405717,
        "Time(s)": 500
    },
    {
        "Altitude(m)": 554180.2501959406,
        "Argument of Periapsis(deg)": 0.01777750245507308,
        "Eccentricity": 0.0,
        "Inclination(deg)": 53.0,
        "Latitude(deg)": 0.5161280487787766,
        "Longitude(deg)": -152.5133949253965,
        "Mean Anomaly(deg)": 179.24109138139247,
        "RAAN(deg)": 129.9735427260489,
        "Satellite Name": "Starlink Shell 1 581",
        "Satellite Number": 581,
        "Semi-Major Axis(m)": 6931778.249405717,
        "Time(s)": 510
    },
    {
        "Altitude(m)": 554244.1581394217,
        "Argument of Periapsis(deg)": 0.018126080934584315,
        "Eccentricity": 0.0,
        "Inclination(deg)": 53.0,
        "Latitude(deg)": 0.012186707725828546,
        "Longitude(deg)": -152.17801476768267,
        "Mean Anomaly(deg)": 179.86792258494918,
        "RAAN(deg)": 129.9730239559714,
        "Satellite Name": "Starlink Shell 1 581",
        "Satellite Number": 581,
        "Semi-Major Axis(m)": 6931778.249405717,
        "Time(s)": 520
    },
    {
        "Altitude(m)": 554310.86245394,
        "Argument of Periapsis(deg)": 0.018474659414095554,
        "Eccentricity": 0.0,
        "Inclination(deg)": 53.0,
        "Latitude(deg)": -0.49174562258829446,
        "Longitude(deg)": -151.8426429620652,
        "Mean Anomaly(deg)": 180.4947537885059,
        "RAAN(deg)": 129.97250518589397,
        "Satellite Name": "Starlink Shell 1 581",
        "Satellite Number": 581,
        "Semi-Major Axis(m)": 6931778.249405717,
        "Time(s)": 530
    },
    {
        "Altitude(m)": 554380.3545028159,
        "Argument of Periapsis(deg)": 0.018823237893606792,
        "Eccentricity": 0.0,
        "Inclination(deg)": 53.0,
        "Latitude(deg)": -0.9956460503483997,
        "Longitude(deg)": -151.50722198509385,
        "Mean Anomaly(deg)": 181.12158499206262,
        "RAAN(deg)": 129.97198641581647,
        "Satellite Name": "Starlink Shell 1 581",
        "Satellite Number": 581,
        "Semi-Major Axis(m)": 6931778.249405717,
        "Time(s)": 540
    },
    {
        "Altitude(m)": 554452.624295916,
        "Argument of Periapsis(deg)": 0.019171816373118027,
        "Eccentricity": 0.0,
        "Inclination(deg)": 53.0,
        "Latitude(deg)": -1.4994916761315862,
        "Longitude(deg)": -151.17169429438272,
        "Mean Anomaly(deg)": 181.7484161956193,
        "RAAN(deg)": 129.971467645739,
        "Satellite Name": "Starlink Shell 1 581",
        "Satellite Number": 581,
        "Semi-Major Axis(m)": 6931778.249405717,
        "Time(s)": 550
    },
    {
        "Altitude(m)": 554527.6604918875,
        "Argument of Periapsis(deg)": 0.019520394852629266,
        "Eccentricity": 0.0,
        "Inclination(deg)": 53.0,
        "Latitude(deg)": -2.0032595812225575,
        "Longitude(deg)": -150.8360017990948,
        "Mean Anomaly(deg)": 182.37524739917603,
        "RAAN(deg)": 129.97094887566152,
        "Satellite Name": "Starlink Shell 1 581",
        "Satellite Number": 581,
        "Semi-Major Axis(m)": 6931778.249405717,
        "Time(s)": 560
    }
]